EUTELSAT 7A             
1 28187U 04008A   25342.96728888  .00000103  00000+0  00000+0 0  9992
2 28187   5.3487  74.2900 0001560 222.2447 350.4409  1.00271585 79440
EUTELSAT 174A           
1 28924U 05052A   25343.10067366  .00000011  00000+0  00000+0 0  9993
2 28924   3.7391  78.8922 0006514 179.1116  30.3268  1.00272554 50427
EUTELSAT HOTBIRD 13B    
1 29270U 06032A   25343.14409391  .00000158  00000+0  00000+0 0  9991
2 29270   1.1714  84.3864 0003701 173.4288 265.3236  1.00274775 45406
EUTELSAT HOTBIRD 13C    
1 33459U 08065A   25343.12866714 -.00000278  00000+0  00000+0 0  9991
2 33459   2.4624  81.4578 0001492 211.6695 146.7507  1.00047350 45439
EUTELSAT 36B            
1 36101U 09065A   25343.14756060  .00000114  00000+0  00000+0 0  9991
2 36101   0.0388   1.4198 0006476 257.0635 283.2719  1.00272194 58805
EUTELSAT KA-SAT 9A      
1 37258U 10069A   25343.13932721  .00000064  00000+0  00000+0 0  9994
2 37258   0.0494 337.3575 0001501 211.8939 308.0534  1.00270451 42107
EUTELSAT 7 WEST A       
1 37816U 11051A   25343.13603387 -.00000058  00000+0  00000+0 0  9993
2 37816   0.0675 335.2378 0005966 250.3846 254.1883  1.00269388 51970
EUTELSAT 16A            
1 37836U 11057A   25343.14071389  .00000106  00000+0  00000+0 0  9996
2 37836   0.0582   0.9849 0005944 261.1779 242.6303  1.00270893  5420
